[{"OBJECT_NAME":"STARLINK-6287","OBJECT_ID":"2023-061AG","EPOCH":"2026-03-09T08:35:57.849216","MEAN_MOTION":15.02534595,"ECCENTRICITY":0.00014249,"INCLINATION":43.0036,"RA_OF_ASC_NODE":186.3692,"ARG_OF_PERICENTER":267.5844,"MEAN_ANOMALY":92.4835,"EPHEMERIS_TYPE":0,"CLASSIFICATION_TYPE":"U","NORAD_CAT_ID":56404,"ELEMENT_SET_NO":999,"REV_AT_EPOCH":15685,"BSTAR":3.8842138e-5,"MEAN_MOTION_DOT":3.21e-6,"MEAN_MOTION_DDOT":0},{"OBJECT_NAME":"FENGYUN 1C DEB","OBJECT_ID":"1999-025DFA","EPOCH":"2026-03-08T02:39:49.474656","MEAN_MOTION":14.042091,"ECCENTRICITY":0.04530669,"INCLINATION":99.0254,"RA_OF_ASC_NODE":189.3543,"ARG_OF_PERICENTER":213.8894,"MEAN_ANOMALY":143.2554,"EPHEMERIS_TYPE":0,"CLASSIFICATION_TYPE":"U","NORAD_CAT_ID":33665,"ELEMENT_SET_NO":999,"REV_AT_EPOCH":93789,"BSTAR":0.0025670733,"MEAN_MOTION_DOT":0.00010255,"MEAN_MOTION_DDOT":0}]
